[{"OBJECT_NAME":"STARLINK-34779","OBJECT_ID":"2025-165C","EPOCH":"2026-03-09T17:01:35.419008","MEAN_MOTION":15.05645667,"ECCENTRICITY":1.748e-5,"INCLINATION":97.6021,"RA_OF_ASC_NODE":147.2494,"ARG_OF_PERICENTER":148.6913,"MEAN_ANOMALY":211.4324,"EPHEMERIS_TYPE":0,"CLASSIFICATION_TYPE":"U","NORAD_CAT_ID":65058,"ELEMENT_SET_NO":999,"REV_AT_EPOCH":3479,"BSTAR":0.00045003279,"MEAN_MOTION_DOT":6.438e-5,"MEAN_MOTION_DDOT":0},{"OBJECT_NAME":"EXPLORER 11","OBJECT_ID":"1961-013A","EPOCH":"2026-03-09T10:05:52.450080","MEAN_MOTION":14.21739623,"ECCENTRICITY":0.04946829,"INCLINATION":28.7774,"RA_OF_ASC_NODE":171.5314,"ARG_OF_PERICENTER":276.7085,"MEAN_ANOMALY":77.745,"EPHEMERIS_TYPE":0,"CLASSIFICATION_TYPE":"U","NORAD_CAT_ID":107,"ELEMENT_SET_NO":999,"REV_AT_EPOCH":26228,"BSTAR":0.00050011847,"MEAN_MOTION_DOT":4.224e-5,"MEAN_MOTION_DDOT":0}]
